{
  "type": "FeatureCollection",
  "features": [
    {
      "type": "Feature",
      "properties": {
        "norad_id": 66962,
        "name": "STARLINK-35874",
        "group": "last-30-days",
        "lat": -42.959203460108334,
        "lon": -8.71424456424481,
        "alt_km": 398.94332609671073,
        "timestamp": "2025-12-27T05:29:37.918872+00:00",
        "meta_object_name": "STARLINK-35874",
        "meta_object_id": "2025-288D",
        "meta_epoch": "2025-12-26T22:00:01.999584",
        "meta_mean_motion": 15.58333705,
        "meta_eccentricity": 0.00014215,
        "meta_inclination": 43.0003,
        "meta_ra_of_asc_node": 80.9596,
        "meta_arg_of_pericenter": 272.4362,
        "meta_mean_anomaly": 46.291,
        "meta_ephemeris_type": 0,
        "meta_classification_type": "U",
        "meta_norad_cat_id": 66962,
        "meta_element_set_no": 999,
        "meta_rev_at_epoch": 410,
        "meta_bstar": -0.030063589,
        "meta_mean_motion_dot": -0.0208863,
        "meta_mean_motion_ddot": 0,
        "tle_line1": "1 66962U 25288D   25360.91668981 -.02088630  00000+0 -30064-1 0  9990",
        "tle_line2": "2 66962  43.0003  80.9596 0001421 272.4362  46.2910 15.58333705  4109"
      },
      "geometry": {
        "type": "Point",
        "coordinates": [
          -8.71424456424481,
          -42.959203460108334
        ]
      }
    },
    {
      "type": "Feature",
      "properties": {
        "norad_id": 66963,
        "name": "STARLINK-36133",
        "group": "last-30-days",
        "lat": -42.88007932868233,
        "lon": -6.1059873881901865,
        "alt_km": 398.8459357093034,
        "timestamp": "2025-12-27T05:29:37.918882+00:00",
        "meta_object_name": "STARLINK-36133",
        "meta_object_id": "2025-288E",
        "meta_epoch": "2025-12-26T22:00:01.999584",
        "meta_mean_motion": 15.58332619,
        "meta_eccentricity": 0.0001558,
        "meta_inclination": 43.0004,
        "meta_ra_of_asc_node": 80.9549,
        "meta_arg_of_pericenter": 272.9377,
        "meta_mean_anomaly": 47.7082,
        "meta_ephemeris_type": 0,
        "meta_classification_type": "U",
        "meta_norad_cat_id": 66963,
        "meta_element_set_no": 999,
        "meta_rev_at_epoch": 410,
        "meta_bstar": -0.030054779,
        "meta_mean_motion_dot": -0.020881,
        "meta_mean_motion_ddot": 0,
        "tle_line1": "1 66963U 25288E   25360.91668981 -.02088100  00000+0 -30055-1 0  9993",
        "tle_line2": "2 66963  43.0004  80.9549 0001558 272.9377  47.7082 15.58332619  4100"
      },
      "geometry": {
        "type": "Point",
        "coordinates": [
          -6.1059873881901865,
          -42.88007932868233
        ]
      }
    },
    {
      "type": "Feature",
      "properties": {
        "norad_id": 66964,
        "name": "STARLINK-36104",
        "group": "last-30-days",
        "lat": -42.74188211275203,
        "lon": -3.509820338500156,
        "alt_km": 398.8259224015528,
        "timestamp": "2025-12-27T05:29:37.918894+00:00",
        "meta_object_name": "STARLINK-36104",
        "meta_object_id": "2025-288F",
        "meta_epoch": "2025-12-26T22:00:01.999584",
        "meta_mean_motion": 15.58333338,
        "meta_eccentricity": 0.00015778,
        "meta_inclination": 43.0005,
        "meta_ra_of_asc_node": 80.9497,
        "meta_arg_of_pericenter": 274.9908,
        "meta_mean_anomaly": 47.5708,
        "meta_ephemeris_type": 0,
        "meta_classification_type": "U",
        "meta_norad_cat_id": 66964,
        "meta_element_set_no": 999,
        "meta_rev_at_epoch": 410,
        "meta_bstar": -0.03005417,
        "meta_mean_motion_dot": -0.02088127,
        "meta_mean_motion_ddot": 0,
        "tle_line1": "1 66964U 25288F   25360.91668981 -.02088127  00000+0 -30054-1 0  9992",
        "tle_line2": "2 66964  43.0005  80.9497 0001577 274.9908  47.5708 15.58333338  4109"
      },
      "geometry": {
        "type": "Point",
        "coordinates": [
          -3.509820338500156,
          -42.74188211275203
        ]
      }
    },
    {
      "type": "Feature",
      "properties": {
        "norad_id": 66965,
        "name": "STARLINK-36067",
        "group": "last-30-days",
        "lat": -42.544567480563956,
        "lon": -0.92262985618827,
        "alt_km": 398.8524116574308,
        "timestamp": "2025-12-27T05:29:37.918904+00:00",
        "meta_object_name": "STARLINK-36067",
        "meta_object_id": "2025-288G",
        "meta_epoch": "2025-12-26T22:00:01.999584",
        "meta_mean_motion": 15.58335838,
        "meta_eccentricity": 0.00015201,
        "meta_inclination": 43.0004,
        "meta_ra_of_asc_node": 80.9456,
        "meta_arg_of_pericenter": 271.4053,
        "meta_mean_anomaly": 53.071,
        "meta_ephemeris_type": 0,
        "meta_classification_type": "U",
        "meta_norad_cat_id": 66965,
        "meta_element_set_no": 999,
        "meta_rev_at_epoch": 410,
        "meta_bstar": -0.030064729,
        "meta_mean_motion_dot": -0.02088919,
        "meta_mean_motion_ddot": 0,
        "tle_line1": "1 66965U 25288G   25360.91668981 -.02088919  00000+0 -30065-1 0  9994",
        "tle_line2": "2 66965  43.0004  80.9456 0001520 271.4053  53.0710 15.58335838  4107"
      },
      "geometry": {
        "type": "Point",
        "coordinates": [
          -0.92262985618827,
          -42.544567480563956
        ]
      }
    },
    {
      "type": "Feature",
      "properties": {
        "norad_id": 66966,
        "name": "STARLINK-36139",
        "group": "last-30-days",
        "lat": -42.290051410576524,
        "lon": 1.6394633143193766,
        "alt_km": 398.76960880083243,
        "timestamp": "2025-12-27T05:29:37.918914+00:00",
        "meta_object_name": "STARLINK-36139",
        "meta_object_id": "2025-288H",
        "meta_epoch": "2025-12-26T22:00:01.999584",
        "meta_mean_motion": 15.58333715,
        "meta_eccentricity": 0.00016328,
        "meta_inclination": 43.0005,
        "meta_ra_of_asc_node": 80.9403,
        "meta_arg_of_pericenter": 276.7396,
        "meta_mean_anomaly": 49.6559,
        "meta_ephemeris_type": 0,
        "meta_classification_type": "U",
        "meta_norad_cat_id": 66966,
        "meta_element_set_no": 999,
        "meta_rev_at_epoch": 410,
        "meta_bstar": -0.030066725,
        "meta_mean_motion_dot": -0.02088969,
        "meta_mean_motion_ddot": 0,
        "tle_line1": "1 66966U 25288H   25360.91668981 -.02088969  00000+0 -30067-1 0  9992",
        "tle_line2": "2 66966  43.0005  80.9403 0001632 276.7396  49.6559 15.58333715  4107"
      },
      "geometry": {
        "type": "Point",
        "coordinates": [
          1.6394633143193766,
          -42.290051410576524
        ]
      }
    },
    {
      "type": "Feature",
      "properties": {
        "norad_id": 66967,
        "name": "STARLINK-36136",
        "group": "last-30-days",
        "lat": -41.97776438616122,
        "lon": 4.185265352352522,
        "alt_km": 398.7784551254472,
        "timestamp": "2025-12-27T05:29:37.918923+00:00",
        "meta_object_name": "STARLINK-36136",
        "meta_object_id": "2025-288J",
        "meta_epoch": "2025-12-26T22:00:01.999584",
        "meta_mean_motion": 15.58337603,
        "meta_eccentricity": 0.00016014,
        "meta_inclination": 43.0004,
        "meta_ra_of_asc_node": 80.9357,
        "meta_arg_of_pericenter": 271.9484,
        "meta_mean_anomaly": 56.3606,
        "meta_ephemeris_type": 0,
        "meta_classification_type": "U",
        "meta_norad_cat_id": 66967,
        "meta_element_set_no": 999,
        "meta_rev_at_epoch": 410,
        "meta_bstar": -0.030088615,
        "meta_mean_motion_dot": -0.0209058,
        "meta_mean_motion_ddot": 0,
        "tle_line1": "1 66967U 25288J   25360.91668981 -.02090580  00000+0 -30089-1 0  9999",
        "tle_line2": "2 66967  43.0004  80.9357 0001601 271.9484  56.3606 15.58337603  4104"
      },
      "geometry": {
        "type": "Point",
        "coordinates": [
          4.185265352352522,
          -41.97776438616122
        ]
      }
    },
    {
      "type": "Feature",
      "properties": {
        "norad_id": 66968,
        "name": "STARLINK-36152",
        "group": "last-30-days",
        "lat": -41.61059848968863,
        "lon": 6.696852047511945,
        "alt_km": 398.91112518312184,
        "timestamp": "2025-12-27T05:29:37.918935+00:00",
        "meta_object_name": "STARLINK-36152",
        "meta_object_id": "2025-288K",
        "meta_epoch": "2025-12-26T22:00:01.999584",
        "meta_mean_motion": 15.58331922,
        "meta_eccentricity": 0.00013888,
        "meta_inclination": 43.0003,
        "meta_ra_of_asc_node": 80.9302,
        "meta_arg_of_pericenter": 275.2705,
        "meta_mean_anomaly": 54.9585,
        "meta_ephemeris_type": 0,
        "meta_classification_type": "U",
        "meta_norad_cat_id": 66968,
        "meta_element_set_no": 999,
        "meta_rev_at_epoch": 410,
        "meta_bstar": -0.030005302,
        "meta_mean_motion_dot": -0.02084871,
        "meta_mean_motion_ddot": 0,
        "tle_line1": "1 66968U 25288K   25360.91668981 -.02084871  00000+0 -30005-1 0  9994",
        "tle_line2": "2 66968  43.0003  80.9302 0001388 275.2705  54.9585 15.58331922  4107"
      },
      "geometry": {
        "type": "Point",
        "coordinates": [
          6.696852047511945,
          -41.61059848968863
        ]
      }
    }
  ]
}